OBJECT_NAME,OBJECT_ID,EPOCH,MEAN_MOTION,ECCENTRICITY,INCLINATION,RA_OF_ASC_NODE,ARG_OF_PERICENTER,MEAN_ANOMALY,EPHEMERIS_TYPE,CLASSIFICATION_TYPE,NORAD_CAT_ID,ELEMENT_SET_NO,REV_AT_EPOCH,BSTAR,MEAN_MOTION_DOT,MEAN_MOTION_DDOT
STARLINK-34447,2025-142Q,2026-07-05T13:05:48.992352,14.98330432,.00026423,70.0020,17.2943,269.2702,90.8155,0,U,64710,999,5730,.84480171E-4,.915E-5,0
STARLINK-34312,2025-142R,2026-07-05T12:53:47.846112,14.98333524,.00027976,70.0019,17.2953,265.2095,94.8745,0,U,64711,999,5730,.19501153E-3,.2235E-4,0
STARLINK-34515,2025-142S,2026-07-05T12:23:44.317824,14.98333981,.00021148,70.0028,17.2045,259.6543,100.4378,0,U,64712,999,5711,.14801942E-3,.1674E-4,0
STARLINK-34583,2025-142T,2026-07-04T23:10:24.987072,14.98342363,.00029217,70.0021,18.8868,268.7679,91.3145,0,U,64713,999,5702,.40266675E-3,.4716E-4,0
STARLINK-34574,2025-142U,2026-07-04T22:46:37.094880,14.98343386,.0002602,70.0021,18.8569,263.4545,96.6318,0,U,64714,999,5705,.52179795E-3,.6141E-4,0
STARLINK-34533,2025-142V,2026-07-04T22:28:20.766144,14.98342773,.00027469,70.0017,18.8161,266.2840,93.8005,0,U,64715,999,5702,.48903949E-3,.5749E-4,0
STARLINK-34548,2025-142W,2026-07-04T22:04:18.017472,14.98341544,.00030364,70.0015,18.7574,266.1424,93.9388,0,U,64716,999,5702,.40658764E-3,.4763E-4,0
STARLINK-34568,2025-142X,2026-07-05T13:05:34.828800,14.98338626,.00025891,70.0032,17.3323,261.4467,98.6399,0,U,64717,999,5714,.31570601E-3,.3677E-4,0
STARLINK-34546,2025-142Y,2026-07-04T23:28:24.665664,14.98342530,.00029137,70.0019,18.5596,266.9041,93.1785,0,U,64718,999,5722,.36468792E-3,.4262E-4,0
STARLINK-34577,2025-142Z,2026-07-04T22:46:22.628928,14.98344129,.00023456,70.0019,18.8256,258.3508,101.7388,0,U,64719,999,5705,.51735456E-3,.6087E-4,0
STARLINK-34572,2025-142AA,2026-07-05T11:23:26.070720,14.98335349,.00026717,70.0023,17.4840,268.5490,91.5363,0,U,64720,999,5729,.23552808E-3,.2719E-4,0
STARLINK-34558,2025-142AB,2026-07-05T11:23:40.247232,14.98341826,.00023674,70.0026,17.4804,268.4796,91.6092,0,U,64721,999,5710,.46894423E-3,.5508E-4,0
MTG-S1,2025-143A,2026-07-05T13:50:18.107808,1.00272442,.00031471,0.5899,342.7752,262.2333,245.6865,0,U,64723,999,360,0,.6E-7,0
STARLINK-34393,2025-144A,2026-07-05T11:40:23.550816,15.34398052,.00011521,53.1602,353.4249,84.2966,275.8168,0,U,64724,999,5776,.7814096E-3,.26115E-3,0
STARLINK-34562,2025-144B,2026-07-05T11:31:57.649440,15.30198487,.0001048,53.1603,354.1036,73.1664,286.9452,0,U,64725,999,5772,.89949664E-3,.26375E-3,0
STARLINK-34557,2025-144C,2026-07-01T22:22:39.817920,15.30247813,.00004945,53.1612,10.3483,84.6627,275.4430,0,U,64726,999,5720,.10706139E-2,.31531E-3,0
STARLINK-34242,2025-144D,2026-07-05T11:42:35.811072,15.30213385,.00006394,53.1590,354.1431,14.6083,345.4936,0,U,64727,999,5774,.11862969E-2,.34955E-3,0
STARLINK-34239,2025-144E,2026-07-05T12:01:36.020640,15.34367761,.0000445,53.1596,353.5128,45.3791,314.7247,0,U,64728,999,5775,.73052523E-3,.24361E-3,0
STARLINK-34588,2025-144F,2026-07-05T11:22:50.130912,15.30177677,.00010349,53.1606,354.0594,100.3632,259.7486,0,U,64729,999,5774,.1056353E-2,.31036E-3,0
STARLINK-34606,2025-144G,2026-07-05T11:52:30.330336,15.34357598,.00005237,53.1599,353.4758,221.8424,138.2539,0,U,64730,999,5775,.14615604E-2,.49263E-3,0
STARLINK-34552,2025-144H,2026-07-04T20:33:47.126016,15.30229730,.00012074,53.1617,356.5993,86.6971,273.4168,0,U,64731,999,5765,.11396314E-2,.33577E-3,0
STARLINK-34596,2025-144J,2026-07-05T11:37:20.868384,15.34383679,.00004541,53.1602,353.4117,330.4380,29.6596,0,U,64732,999,5775,.19808768E-3,.6319E-4,0
STARLINK-34556,2025-144K,2026-07-05T10:39:07.775136,15.34424370,.0001195,53.1613,349.6134,96.6635,263.4503,0,U,64733,999,5780,.15364055E-2,.51934E-3,0
STARLINK-34591,2025-144L,2026-07-05T12:20:24.979200,15.30192541,.00018303,53.1615,353.5963,81.4321,278.6888,0,U,64734,999,5773,.72725037E-3,.21237E-3,0
STARLINK-34587,2025-144M,2026-07-05T11:28:54.909120,15.30175979,.00008201,53.1615,354.0909,329.5445,30.5508,0,U,64735,999,5769,.49823407E-3,.14415E-3,0
STARLINK-34130,2025-144N,2026-07-05T12:04:38.018784,15.34359311,.00006268,53.1609,353.5247,299.1427,60.9513,0,U,64736,999,5775,.15636568E-2,.52758E-3,0
STARLINK-34619,2025-144P,2026-07-05T11:48:39.962016,15.30172114,.00011554,53.1599,354.1654,355.4120,4.6870,0,U,64737,999,5774,.46045199E-3,.13291E-3,0
STARLINK-34597,2025-144Q,2026-07-05T14:00:03.000384,15.34344391,.00020688,53.1599,353.0375,97.9525,43.2893,0,U,64738,999,587,.63694425E-4,.1772E-4,0
STARLINK-34471,2025-144R,2026-07-05T11:24:20.993472,15.30200315,.00006393,53.1609,354.0609,130.7011,229.4046,0,U,64739,999,5768,.11463165E-2,.33746E-3,0
STARLINK-34208,2025-144S,2026-07-05T10:48:11.975904,15.34389057,.00007726,53.1617,349.6508,88.8247,271.2844,0,U,64740,999,5780,.14848962E-2,.50111E-3,0
