STARLINK-34447          
1 64710U 25142Q   26186.54570593  .00000915  00000+0  84480-4 0  9995
2 64710  70.0020  17.2943 0002642 269.2702  90.8155 14.98330432 57307
STARLINK-34312          
1 64711U 25142R   26186.53735933  .00002235  00000+0  19501-3 0  9994
2 64711  70.0019  17.2953 0002797 265.2095  94.8745 14.98333524 57303
STARLINK-34515          
1 64712U 25142S   26186.51648516  .00001674  00000+0  14802-3 0  9998
2 64712  70.0028  17.2045 0002114 259.6543 100.4378 14.98333981 57116
STARLINK-34583          
1 64713U 25142T   26185.96556698  .00004716  00000+0  40267-3 0  9990
2 64713  70.0021  18.8868 0002921 268.7679  91.3145 14.98342363 57021
STARLINK-34574          
1 64714U 25142U   26185.94904045  .00006141  00000+0  52180-3 0  9993
2 64714  70.0021  18.8569 0002602 263.4545  96.6318 14.98343386 57059
STARLINK-34533          
1 64715U 25142V   26185.93635146  .00005749  00000+0  48904-3 0  9998
2 64715  70.0017  18.8161 0002746 266.2840  93.8005 14.98342773 57029
STARLINK-34548          
1 64716U 25142W   26185.91965298  .00004763  00000+0  40659-3 0  9995
2 64716  70.0015  18.7574 0003036 266.1424  93.9388 14.98341544 57025
STARLINK-34568          
1 64717U 25142X   26186.54554200  .00003677  00000+0  31571-3 0  9999
2 64717  70.0032  17.3323 0002589 261.4467  98.6399 14.98338626 57143
STARLINK-34546          
1 64718U 25142Y   26185.97806326  .00004262  00000+0  36469-3 0  9997
2 64718  70.0019  18.5596 0002913 266.9041  93.1785 14.98342530 57220
STARLINK-34577          
1 64719U 25142Z   26185.94887302  .00006087  00000+0  51735-3 0  9998
2 64719  70.0019  18.8256 0002345 258.3508 101.7388 14.98344129 57051
STARLINK-34572          
1 64720U 25142AA  26186.47460730  .00002719  00000+0  23553-3 0  9996
2 64720  70.0023  17.4840 0002671 268.5490  91.5363 14.98335349 57296
STARLINK-34558          
1 64721U 25142AB  26186.47477138  .00005508  00000+0  46894-3 0  9999
2 64721  70.0026  17.4804 0002367 268.4796  91.6092 14.98341826 57107
MTG-S1                  
1 64723U 25143A   26186.57659847  .00000006  00000+0  00000+0 0  9995
2 64723   0.5899 342.7752 0003147 262.2333 245.6865  1.00272442  3608
STARLINK-34393          
1 64724U 25144A   26186.48638369  .00026115  00000+0  78141-3 0  9997
2 64724  53.1602 353.4249 0001152  84.2966 275.8168 15.34398052 57768
STARLINK-34562          
1 64725U 25144B   26186.48052835  .00026375  00000+0  89950-3 0  9994
2 64725  53.1603 354.1036 0001048  73.1664 286.9452 15.30198487 57729
STARLINK-34557          
1 64726U 25144C   26182.93240530  .00031531  00000+0  10706-2 0  9994
2 64726  53.1612  10.3483 0000494  84.6627 275.4430 15.30247813 57207
STARLINK-34242          
1 64727U 25144D   26186.48791448  .00034955  00000+0  11863-2 0  9996
2 64727  53.1590 354.1431 0000639  14.6083 345.4936 15.30213385 57740
STARLINK-34239          
1 64728U 25144E   26186.50111135  .00024361  00000+0  73053-3 0  9999
2 64728  53.1596 353.5128 0000445  45.3791 314.7247 15.34367761 57752
STARLINK-34588          
1 64729U 25144F   26186.47419133  .00031036  00000+0  10564-2 0  9999
2 64729  53.1606 354.0594 0001034 100.3632 259.7486 15.30177677 57742
STARLINK-34606          
1 64730U 25144G   26186.49479549  .00049263  00000+0  14616-2 0  9993
2 64730  53.1599 353.4758 0000523 221.8424 138.2539 15.34357598 57757
STARLINK-34552          
1 64731U 25144H   26185.85679544  .00033577  00000+0  11396-2 0  9993
2 64731  53.1617 356.5993 0001207  86.6971 273.4168 15.30229730 57659
STARLINK-34596          
1 64732U 25144J   26186.48426931  .00006319  00000+0  19809-3 0  9996
2 64732  53.1602 353.4117 0000454 330.4380  29.6596 15.34383679 57759
STARLINK-34556          
1 64733U 25144K   26186.44383999  .00051934  00000+0  15364-2 0  9993
2 64733  53.1613 349.6134 0001195  96.6635 263.4503 15.34424370 57801
STARLINK-34591          
1 64734U 25144L   26186.51417800  .00021237  00000+0  72725-3 0  9999
2 64734  53.1615 353.5963 0001830  81.4321 278.6888 15.30192541 57732
STARLINK-34587          
1 64735U 25144M   26186.47841330  .00014415  00000+0  49823-3 0  9997
2 64735  53.1615 354.0909 0000820 329.5445  30.5508 15.30175979 57695
STARLINK-34130          
1 64736U 25144N   26186.50321781  .00052758  00000+0  15637-2 0  9992
2 64736  53.1609 353.5247 0000626 299.1427  60.9513 15.34359311 57752
STARLINK-34619          
1 64737U 25144P   26186.49212919  .00013291  00000+0  46045-3 0  9990
2 64737  53.1599 354.1654 0001155 355.4120   4.6870 15.30172114 57744
STARLINK-34597          
1 64738U 25144Q   26186.58336806  .00001772  00000+0  63694-4 0  9994
2 64738  53.1599 353.0375 0002068  97.9525  43.2893 15.34344391  5877
STARLINK-34471          
1 64739U 25144R   26186.47524298  .00033746  00000+0  11463-2 0  9998
2 64739  53.1609 354.0609 0000639 130.7011 229.4046 15.30200315 57686
STARLINK-34208          
1 64740U 25144S   26186.45013861  .00050111  00000+0  14849-2 0  9993
2 64740  53.1617 349.6508 0000772  88.8247 271.2844 15.34389057 57807
